[{"OBJECT_NAME":"SNAP-3 EDDIE","OBJECT_ID":"2015-058J","EPOCH":"2026-03-09T10:37:04.410624","MEAN_MOTION":15.44637695,"ECCENTRICITY":0.00384043,"INCLINATION":64.7481,"RA_OF_ASC_NODE":75.5572,"ARG_OF_PERICENTER":73.6673,"MEAN_ANOMALY":286.8683,"EPHEMERIS_TYPE":0,"CLASSIFICATION_TYPE":"U","NORAD_CAT_ID":40972,"ELEMENT_SET_NO":999,"REV_AT_EPOCH":10354,"BSTAR":0.0012991754,"MEAN_MOTION_DOT":0.00062838,"MEAN_MOTION_DDOT":0},{"OBJECT_NAME":"STARLINK-2401","OBJECT_ID":"2021-018AH","EPOCH":"2026-03-09T22:10:26.161824","MEAN_MOTION":15.422267,"ECCENTRICITY":7.664e-5,"INCLINATION":53.0517,"RA_OF_ASC_NODE":251.5428,"ARG_OF_PERICENTER":114.0385,"MEAN_ANOMALY":246.0699,"EPHEMERIS_TYPE":0,"CLASSIFICATION_TYPE":"U","NORAD_CAT_ID":47818,"ELEMENT_SET_NO":999,"REV_AT_EPOCH":27661,"BSTAR":0.00076022564,"MEAN_MOTION_DOT":0.00032889,"MEAN_MOTION_DDOT":0}]
